[{"OBJECT_NAME":"STARLINK-3087","OBJECT_ID":"2021-082AX","EPOCH":"2026-03-09T22:34:00.117696","MEAN_MOTION":14.97523271,"ECCENTRICITY":0.00025129,"INCLINATION":69.9986,"RA_OF_ASC_NODE":274.7447,"ARG_OF_PERICENTER":266.9197,"MEAN_ANOMALY":93.1674,"EPHEMERIS_TYPE":0,"CLASSIFICATION_TYPE":"U","NORAD_CAT_ID":49175,"ELEMENT_SET_NO":999,"REV_AT_EPOCH":24648,"BSTAR":2.6790448e-5,"MEAN_MOTION_DOT":2.21e-6,"MEAN_MOTION_DDOT":0},{"OBJECT_NAME":"AE3VA","OBJECT_ID":"2025-135AM","EPOCH":"2026-03-09T20:48:55.147680","MEAN_MOTION":14.95813781,"ECCENTRICITY":0.00020298,"INCLINATION":97.7553,"RA_OF_ASC_NODE":184.5516,"ARG_OF_PERICENTER":209.3978,"MEAN_ANOMALY":150.7129,"EPHEMERIS_TYPE":0,"CLASSIFICATION_TYPE":"U","NORAD_CAT_ID":64563,"ELEMENT_SET_NO":999,"REV_AT_EPOCH":3908,"BSTAR":0.00090702727,"MEAN_MOTION_DOT":0.00010077,"MEAN_MOTION_DDOT":0}]
